{
  "swings": {
    "-KYNmflI8q-ZvvxUNlLv": {
      "name": "Chooses",
      "likes": 0,
      "openingTimes": {
        "0": {
          "open": "10:00",
          "close": "23:30"
        },
        "1": {
          "open": "10:00",
          "close": "23:30"
        },
        "2": {
          "open": "10:30",
          "close": "23:30"
        },
        "3": {
          "open": "14:30",
          "close": "23:30"
        },
        "4": {
          "open": "12:00",
          "close": "23:30"
        },
        "5": {
          "open": "11:00",
          "close": "23:30"
        },
        "6": {
          "open": "07:00",
          "close": "24:00"
        }
      }
    },
    "-KYOcaS9a_xkvJ8ZrA6v": {
      "name": "Me schatjes",
      "likes": 2,
      "openingTimes": {
        "0": {
          "open": "10:00",
          "close": "23:30"
        },
        "1": {
          "open": "10:00",
          "close": "23:30"
        },
        "2": {
          "open": "10:30",
          "close": "23:30"
        },
        "3": {
          "open": "14:30",
          "close": "23:30"
        },
        "4": {
          "open": "12:00",
          "close": "23:30"
        },
        "5": {
          "open": "11:00",
          "close": "23:30"
        },
        "6": {
          "open": "07:00",
          "close": "24:00"
        }
      }
    },
    "-KYmlLg0IVIK6ZluWBZj": {
      "name": "Tietenbar",
      "likes": 8,
      "openingTimes": {
        "0": {
          "open": "10:00",
          "close": "23:30"
        },
        "1": {
          "open": "10:00",
          "close": "23:30"
        },
        "2": {
          "open": "10:30",
          "close": "23:30"
        },
        "3": {
          "open": "14:30",
          "close": "23:30"
        },
        "4": {
          "open": "12:00",
          "close": "23:30"
        },
        "5": {
          "open": "11:00",
          "close": "23:30"
        },
        "6": {
          "open": "07:00",
          "close": "24:00"
        }
      }
    },
    "-KYnSvXicWr1BkEAtmMm": {
      "name": "De buren",
      "likes": 3,
      "openingTimes": {
        "0": {
          "open": "10:00",
          "close": "23:30"
        },
        "1": {
          "open": "10:00",
          "close": "23:30"
        },
        "2": {
          "open": "10:30",
          "close": "23:30"
        },
        "3": {
          "open": "14:30",
          "close": "23:30"
        },
        "4": {
          "open": "12:00",
          "close": "23:30"
        },
        "5": {
          "open": "11:00",
          "close": "23:30"
        },
        "6": {
          "open": "07:00",
          "close": "24:00"
        }
      }
    },
    "-KZWUpVYwO3ADHGnDWFr": {
      "name": "Greenhouse",
      "likes": 3,
      "openingTimes": {
        "0": {
          "open": "10:00",
          "close": "23:30"
        },
        "1": {
          "open": "10:00",
          "close": "23:30"
        },
        "2": {
          "open": "10:30",
          "close": "23:30"
        },
        "3": {
          "open": "14:30",
          "close": "23:30"
        },
        "4": {
          "open": "12:00",
          "close": "23:30"
        },
        "5": {
          "open": "11:00",
          "close": "23:30"
        },
        "6": {
          "open": "07:00",
          "close": "24:00"
        }
      }
    }
  }
}
[{"id":1,"name":"ACU","Likes":0,"0":"Gesloten","1":"18:00 - 23:00","2":"18:00 - 23:00","3":"18:00 - 03:00","4":"18:00 - 04:00","5":"18:00 - 04:00","6":"14:00 - 23:00","street":"Voorstraat ","houseNumber":"71","city":"Utrecht","zipcode":"3512AK"},
  {"id":2,"name":"Bar Beton (Centrum)","Likes":0,"0":"08:00 - 18:00","1":"08:00 - 18:00","2":"08:00 - 18:00","3":"08:00 - 18:00","4":"08:00 - 18:00","5":"08:00 - 18:00","6":"11:00 - 18:00","street":"Korte Jansstraat ","houseNumber":"13-15","city":"Utrecht","zipcode":"3512GM"},
  {"id":3,"name":"Bar Beton","Likes":0,"0":"08:00 - 18:00","1":"08:00 - 18:00","2":"08:00 - 18:00","3":"08:00 - 18:00","4":"08:00 - 18:00","5":"Gesloten","6":"Gesloten","street":"Pythagoraslaan ","houseNumber":"101","city":"Utrecht","zipcode":"3584BB"},
  {"id":4,"name":"BASIS","Likes":0,"0":"Gesloten","1":"Gesloten","2":"Gesloten","3":"Gesloten","4":"22:00 - 05:00","5":"20:00 - 05:00","6":"Gesloten","street":"Oudegracht aan de Werf ","houseNumber":"97","city":"Utrecht","zipcode":"3511AL"},
  {"id":5,"name":"CAB Rondom (Loods)","Likes":0,"0":"09:00 - 18:00","1":"09:00 - 18:00","2":"09:00 - 18:00","3":"09:00 - 18:00","4":"09:00 - 18:00","5":"Gesloten","6":"Gesloten","street":"CAB Rondom ","houseNumber":"90a","city":"Utrecht","zipcode":"3534BE"},
  {"id":6,"name":"Cambridgebar (Studentencaf√©)","Likes":0,"0":"21:00 - 02:00","1":"21:00 - 02:00","2":"21:00 - 02:00","3":"21:00 - 02:00","4":"21:00 - 01:00","5":"Gesloten","6":"Gesloten","street":"Cambridgelaan ","houseNumber":"901","city":"Utrecht","zipcode":"3584DW"},
  {"id":7,"name":"Central Studios","Likes":0,"0":"Event locatie","1":"Event locatie","2":"Event locatie","3":"Event locatie","4":"Event locatie","5":"Event locatie","6":"Event locatie","street":"Gietijzerstraat ","houseNumber":"3","city":"Utrecht","zipcode":"3534AV"},
  {"id":8,"name":"CitySense","Likes":0,"0":"Event locatie","1":"Event locatie","2":"Event locatie","3":"Event locatie","4":"Event locatie","5":"Event locatie","6":"Event locatie","street":"St. Jacobsstraat ","houseNumber":"12","city":"Utrecht","zipcode":"3511BS"},
  {"id":9,"name":"Club Poema","Likes":0,"0":"Gesloten","1":"Gesloten","2":"Gesloten","3":"23:00 - 05:00","4":"23:00 - 05:00","5":"23:00 - 05:00","6":"Gesloten","street":"Drieharingstraat ","houseNumber":"22","city":"Utrecht","zipcode":"3511BJ"},
  {"id":10,"name":"C.S. Veritas","Likes":0,"0":"Event locatie","1":"Event locatie","2":"Event locatie","3":"Event locatie","4":"Event locatie","5":"Event locatie","6":"Event locatie","street":"Kromme Nieuwegracht ","houseNumber":"54","city":"Utrecht","zipcode":"3512HK"},
  {"id":11,"name":"dB's Studio","Likes":0,"0":"12:00 - 23:59","1":"12:00 - 23:59","2":"12:00 - 23:59","3":"12:00 - 23:59","4":"12:00 - 23:59","5":"12:00 - 23:59","6":"12:00 - 23:59","street":"CAB Rondom ","houseNumber":"100","city":"Utrecht","zipcode":"3524BE"},
  {"id":12,"name":"Club Dito","Likes":0,"0":"Event locatie","1":"Event locatie","2":"Event locatie","3":"Event locatie","4":"Event locatie","5":"Event locatie","6":"Event locatie","street":"Herculesplein ","houseNumber":"329","city":"Utrecht","zipcode":"3584AA"},
  {"id":13,"name":"EKKO","Likes":0,"0":"20:00 - 03:00","1":"20:00 - 03:00","2":"20:00 - 03:00","3":"20:00 - 04:15","4":"20:00 - 05:00","5":"20:00 - 05:00","6":"20:00 - 03:15","street":"Bemuurde Weerd WZ ","houseNumber":"3","city":"Utrecht","zipcode":"3515BH"},
  {"id":14,"name":"DeFabrique","Likes":0,"0":"Event locatie","1":"Event locatie","2":"Event locatie","3":"Event locatie","4":"Event locatie","5":"Event locatie","6":"Event locatie","street":"Westkanaaldijk ","houseNumber":"7","city":"Utrecht","zipcode":"3542DA"},
  {"id":15,"name":"'t Gras van de Buren","Likes":0,"0":"11:00 - 02:00","1":"11:00 - 02:00","2":"11:00 - 02:00","3":"11:00 - 03:00","4":"11:00 - 04:00","5":"11:00 - 04:00","6":"Gesloten","street":"Lange Jansstraat ","houseNumber":"16","city":"Utrecht","zipcode":"3512BB"},
  {"id":16,"name":"Hofman ","Likes":0,"0":"Gesloten","1":"11:00 - 23:30","2":"11:00 - 23:30","3":"11:00 - 03:00","4":"11:00 - 04:30","5":"11:00 - 04:30","6":"11:00 - 23:30","street":"Janskerhof ","houseNumber":"17a","city":"Utrecht","zipcode":"3512BM"},
  {"id":17,"name":"Hutspot ","Likes":0,"0":"10:00 - 19:00","1":"10:00 - 19:00","2":"10:00 - 19:00","3":"10:00 - 22:00","4":"10:00 - 22:00","5":"10:00 - 22:00","6":"12:00 - 18:00","street":"Vinkenburgstraat ","houseNumber":"19BIS","city":"Utrecht","zipcode":"3512AA"},
  {"id":18,"name":"Key West Beachhouse","Likes":0,"0":"09:00 - 00:00","1":"09:00 - 00:00","2":"09:00 - 00:00","3":"09:00 - 00:00","4":"09:00 - 00:00","5":"10:00 - 00:00","6":"10:00 - 00:00","street":"Strandboulevard (Haarrijnseplas)","houseNumber":"222","city":"Utrecht","zipcode":"3543MA"},
  {"id":19,"name":"Klein Berlijn ","Likes":0,"0":"12:00 - 00:00","1":"12:00 - 00:00","2":"12:00 - 00:00","3":"12:00 - 00:00","4":"12:00 - 00:00","5":"12:00 - 00:00","6":"12:00 - 00:00","street":"Briljantlaan ","houseNumber":"5a","city":"Utrecht","zipcode":"3523CD"},
  {"id":20,"name":"Kytopia","Likes":0,"0":"Event locatie","1":"Event locatie","2":"Event locatie","3":"Event locatie","4":"Event locatie","5":"Event locatie","6":"Event locatie","street":"Oudegracht ","houseNumber":"245","city":"Utrecht","zipcode":"3511NL"},
  {"id":21,"name":"De Vrienden ","Likes":0,"0":"20:00 - 04:00","1":"20:00 - 04:00","2":"20:00 - 04:00","3":"20:00 - 05:00","4":"20:00 - 05:00","5":"20:00 - 05:00","6":"20:00 - 04:00","street":"Nobelstraat ","houseNumber":"10","city":"Utrecht","zipcode":"3512 EN"},
  {"id":22,"name":"Club Maggy","Likes":0,"0":"Gesloten","1":"Gesloten","2":"Gesloten","3":"Gesloten","4":"23:00 - 05:00","5":"23:00 - 05:00","6":"Gesloten","street":"Oudegracht aan de werf ","houseNumber":"154","city":"Utrecht","zipcode":"3511AL"},
  {"id":23,"name":"Pret A Porter","Likes":0,"0":"Gesloten","1":"18:00 - 00:00","2":"18:00 - 00:00","3":"18:00 - 00:00","4":"18:00 - 00:00","5":"18:00 - 00:00","6":"Gesloten","street":"Korte Jansstraat ","houseNumber":"4","city":"Utrecht","zipcode":"3512GN"},
  {"id":24,"name":"Rasa","Likes":0,"0":"Event locatie","1":"Event locatie","2":"Event locatie","3":"Event locatie","4":"Event locatie","5":"Event locatie","6":"Event locatie","street":"Pauwstraat ","houseNumber":"13a","city":"Utrecht","zipcode":"3512TG"},
  {"id":25,"name":"Stadstuin (De)","Likes":0,"0":"10:00 - 18:00","1":"10:00 - 18:00","2":"10:00 - 18:00","3":"10:00 - 18:00","4":"10:00 - 01:00","5":"10:00 - 01:00","6":"10:00 - 18:00","street":"Europalaan ","houseNumber":"20","city":"Utrecht","zipcode":"3526KS"},
  {"id":26,"name":"Stairway to Heaven ","Likes":0,"0":"13:00 - 22:00","1":"13:00 - 22:00","2":"13:00 - 22:00","3":"13:00 - 22:00","4":"13:00 - 22:00","5":"13:00 - 22:00","6":"13:00 - 22:00","street":"Mariaplaats ","houseNumber":"11","city":"Utrecht","zipcode":"3511LJ"},
  {"id":27,"name":"Stathe","Likes":0,"0":"16:00 - 01:00","1":"16:00 - 01:00","2":"16:00 - 01:00","3":"16:00 - 01:00","4":"16:00 - 02:30","5":"16:00 - 02:30","6":"16:00 - 00:00","street":"Rozenstraat ","houseNumber":"15","city":"Utrecht","zipcode":"3511BV"},
  {"id":28,"name":"SOIA-Strand Oog in Al","Likes":0,"0":"12:00 - 00:00","1":"12:00 - 00:00","2":"12:00 - 00:00","3":"12:00 - 00:00","4":"12:00 - 00:00","5":"11:00 - 00:00","6":"11:00 - 00:00","street":"Noordpunt, Kanaalweg ","houseNumber":"199","city":"Utrecht","zipcode":"3533HL"},
  {"id":29,"name":"Tivoli de Helling","Likes":0,"0":"Event locatie","1":"Event locatie","2":"Event locatie","3":"Event locatie","4":"Event locatie","5":"Event locatie","6":"Event locatie","street":"Helling ","houseNumber":"7","city":"Utrecht","zipcode":"3523 CB"},
  {"id":30,"name":"TivoliVredenburg","Likes":0,"0":"Event locatie","1":"Event locatie","2":"Event locatie","3":"Event locatie","4":"Event locatie","5":"Event locatie","6":"Event locatie","street":"Vredenburgkade ","houseNumber":"11","city":"Utrecht","zipcode":"3511WC"},
  {"id":31,"name":"Unitas S.R","Likes":0,"0":"10:00 - 05:00","1":"10:00 - 05:00","2":"10:00 - 05:00","3":"10:00 - 05:00","4":"10:00 - 05:00","5":"Gesloten","6":"Gesloten","street":"Lucasbolwerk ","houseNumber":"8","city":"Utrecht","zipcode":"3512EG"},
  {"id":32,"name":"V-420","Likes":0,"0":"Event locatie","1":"Event locatie","2":"Event locatie","3":"Event locatie","4":"Event locatie","5":"Event locatie","6":"Event locatie","street":"Vleutenseweg ","houseNumber":"420","city":"Utrecht","zipcode":"3511WC"},
  {"id":33,"name":"Het Vechthuis","Likes":0,"0":"Event locatie","1":"Event locatie","2":"Event locatie","3":"Event locatie","4":"Event locatie","5":"Event locatie","6":"Event locatie","street":"Jagerskade ","houseNumber":"13","city":"Utrecht","zipcode":"3552TL"},
  {"id":34,"name":"Venue","Likes":0,"0":"Gesloten","1":"17:00 - 00:00","2":"17:00 - 00:00","3":"17:00 - 00:00","4":"17:00 - 02:00","5":"17:00 - 02:00","6":"14:00 - 23:00","street":"Varkenmarkt ","houseNumber":"16","city":"Utrecht","zipcode":"3511VZ"},
  {"id":35,"name":"Walden","Likes":0,"0":"12:00 - 00:00","1":"12:00 - 00:00","2":"12:00 - 00:00","3":"12:00 - 01:00","4":"12:00 - 03:00","5":"12:00 - 03:00","6":"12:00 - 00:00","street":"Domplein ","houseNumber":"16","city":"Utrecht","zipcode":"3512JD"},
  {"id":36,"name":"Winkel van Sinkel","Likes":0,"0":"10:00 - 22:30","1":"10:00 - 22:30","2":"10:00 - 23:30","3":"10:00 - 23:30","4":"10:00 - 23:30","5":"10:00 - 23:30","6":"11:00 - 22:30","street":"Oudegracht ","houseNumber":"158","city":"Utrecht","zipcode":"3511AZ"},
  {"id":37,"name":"Woolloomooloo","Likes":0,"0":"23:00 - 05:00","1":"Gesloten","2":"23:00 - 05:00","3":"23:00 - 05:00","4":"23:00 - 05:00","5":"23:00 - 05:00","6":"Gesloten","street":"Janskerkhof ","houseNumber":"14","city":"Utrecht","zipcode":"3512BL"},
  {"id":38,"name":"Zussen","Likes":0,"0":"12:00 - 00:00","1":"12:00 - 00:00","2":"12:00 - 00:00","3":"12:00 - 01:30","4":"12:00 - 02:30","5":"12:00 - 02:30","6":"12:00 - 00:00","street":"Korte Jansstraat ","houseNumber":"23","city":"Utrecht","zipcode":"3512GM"},
  {"id":39,"name":"Filemon","Likes":0,"0":"Gesloten","1":"Gesloten","2":"17:00 - 05:00","3":"17:00 - 05:00","4":"17:00 - 05:00","5":"17:00 - 05:00","6":"Gesloten","street":"Janskerkhof ","houseNumber":"22","city":"Utrecht","zipcode":"3512BN"},
  {"id":40,"name":"Pakhuis","Likes":0,"0":"Gesloten","1":"Gesloten","2":"12:00 - 05:00","3":"12:00 - 05:00","4":"12:00 - 05:00","5":"12:00 - 05:00","6":"Gesloten","street":"Janskerkhof ","houseNumber":"21","city":"Utrecht","zipcode":"3512BM"},
  {"id":41,"name":"Stan&Co","Likes":0,"0":"10:00 - 00:00","1":"10:00 - 00:00","2":"10:00 - 00:00","3":"10:00 - 01:00","4":"10:00 - 02:00","5":"10:00 - 02:00","6":"11:00 - 00:00","street":"Ganzenmarkt","houseNumber":"16","city":"Utrecht","zipcode":"3512GD"},
  {"id":42,"name":"Flater","Likes":0,"0":"20:00 - 02:00","1":"20:00 - 02:00","2":"20:00 - 02:00","3":"20:00 - 02:00","4":"20:00 - 02:00","5":"20:00 - 02:00","6":"20:00 - 02:00","street":"Oudegracht","houseNumber":"140","city":"Utrecht","zipcode":"3511AZ"},
  {"id":43,"name":"Van Velsen","Likes":0,"0":"16:00 - 02:00","1":"15:00 - 02:00","2":"15:00 - 02:00","3":"15:00 - 02:00","4":"14:00 - 03:00","5":"14:00 - 03:00","6":"12:00 - 00:00","street":"Mariaplaats","houseNumber":"8","city":"Utrecht","zipcode":"3511LH"},
  {"id":44,"name":"Jozef","Likes":0,"0":"09:00 - 01:00","1":"09:00 - 01:00","2":"09:00 - 01:00","3":"09:00 - 01:00","4":"09:00 - 02:00","5":"09:00 - 02:00","6":"09:00 - 01:00","street":"Mariaplaats","houseNumber":"50","city":"Utrecht","zipcode":"3511LM"},
  {"id":45,"name":"Broers","Likes":0,"0":"10:00 - 00:00","1":"10:00 - 00:00","2":"10:00 - 00:00","3":"10:00 - 01:00","4":"10:00 - 01:00","5":"09:00 - 01:00","6":"10:00 - 00:00","street":"Janskerkhof ","houseNumber":"9","city":"Utrecht","zipcode":"3512BK"},
  {"id":46,"name":"De Stad","Likes":0,"0":"16:00 - 02:00","1":"16:00 - 02:00","2":"16:00 - 02:00","3":"16:00 - 02:00","4":"16:00 - 03:00","5":"16:00 - 03:00","6":"Gesloten","street":"Lange Jufferstraat","houseNumber":"58","city":"Utrecht","zipcode":"3512EE"},
  {"id":47,"name":"Olivier","Likes":0,"0":"12:00 - 00:00","1":"10:00 - 00:00","2":"10:00 - 00:00","3":"10:00 - 00:00","4":"10:00 - 00:00","5":"10:00 - 00:00","6":"12:00 - 00:00","street":"Achter Clarenburg","houseNumber":"6","city":"Utrecht","zipcode":"3511JJ"},
  {"id":48,"name":"Tilt","Likes":0,"0":"11:00 - 02:00","1":"11:00 - 02:00","2":"11:00 - 02:00","3":"11:00 - 04:00","4":"11:00 - 04:00","5":"11:00 - 04:00","6":"11:00 - 02:00","street":"Lange Jufferstraat","houseNumber":"62","city":"Utrecht","zipcode":"3512EE"},
  {"id":49,"name":"Otje","Likes":0,"0":"17:00 - 02:00","1":"17:00 - 03:00","2":"17:00 - 03:00","3":"17:00 - 03:00","4":"17:00 - 04:00","5":"17:00 - 04:00","6":"Gesloten","street":"Nobelstraat","houseNumber":"283","city":"Utrecht","zipcode":"3512EM"},
  {"id":50,"name":"De Bastaard","Likes":0,"0":"16:00 - 02:00","1":"16:00 - 02:00","2":"16:00 - 02:00","3":"16:00 - 03:00","4":"16:00 - 03:00","5":"16:00 - 03:00","6":"16:00 - 02:00","street":"Jansveld","houseNumber":"17","city":"Utrecht","zipcode":"3512BD"},
  {"id":51,"name":"De Beurs","Likes":0,"0":"11:00 - 01:00","1":"10:00 - 01:00","2":"11:00 - 02:00","3":"11:00 - 05:00","4":"11:00 - 05:00","5":"11:00 - 05:00","6":"11:00 - 01:00","street":"Neude","houseNumber":"37-39","city":"Utrecht","zipcode":"3512AG"},
  {"id":52,"name":"Kafe Belgie","Likes":0,"0":"13:00 - 03:00","1":"11:00 - 03:00","2":"11:00 - 03:00","3":"11:00 - 04:00","4":"11:00 - 04:00","5":"11:00 - 04:00","6":"13:00 - 03:00","street":"Oudegracht ","houseNumber":"196","city":"Utrecht","zipcode":"3511NR"},
  {"id":53,"name":"Ledig Erf","Likes":0,"0":"10:00 - 02:00","1":"10:00 - 02:00","2":"10:00 - 02:00","3":"10:00 - 03:00","4":"10:00 - 03:00","5":"10:00 - 03:00","6":"10:00 - 00:00","street":"Tolsteegbrug","houseNumber":"3","city":"Utrecht","zipcode":"3511ZN"},
  {"id":54,"name":"Nieuwe Dikke Dries","Likes":0,"0":"Gesloten","1":"15:00 - 01:00","2":"15:00 - 01:00","3":"15:00 - 02:00","4":"15:00 - 03:00","5":"11:00 - 04:00","6":"Gesloten","street":"Oud Kerkhof","houseNumber":"36","city":"Utrecht","zipcode":"3512GL"},
  {"id":55,"name":"Quignon","Likes":0,"0":"12:00 - 00:30","1":"12:00 - 01:00","2":"12:00 - 01:00","3":"12:00 - 02:00","4":"12:00 - 03:00","5":"11:00 - 03:00","6":"12:00 - 01:00","street":"Oudegracht ","houseNumber":"134","city":"Utrecht","zipcode":"3511AX"},
  {"id":56,"name":"De Luifel","Likes":0,"0":"10:30 - 21:00","1":"10:30 - 21:00","2":"10:30 - 21:00","3":"10:30 - 21:00","4":"10:30 - 21:00","5":"10:30 - 21:00","6":"10:30 - 21:00","street":"Neude","houseNumber":"35-36","city":"Utrecht","zipcode":"3512AG"},
  {"id":57,"name":"Springhaver","Likes":0,"0":"11:00 - 00:00","1":"11:00 - 00:00","2":"11:00 - 00:00","3":"11:00 - 00:30","4":"11:00 - 00:30","5":"11:00 - 00:30","6":"11:00 - 00:00","street":"Springweg","houseNumber":"50","city":"Utrecht","zipcode":"3511VS"},
  {"id":58,"name":"Neutje","Likes":0,"0":"10:00 - 02:00","1":"10:00 - 02:00","2":"10:00 - 02:00","3":"10:00 - 04:00","4":"10:00 - 04:00","5":"10:00 - 04:00","6":"12:00 - 02:00","street":"Neude","houseNumber":"30","city":"Utrecht","zipcode":"3512AG"},
  {"id":59,"name":"Oude Pothuys","Likes":0,"0":"15:00 - 02:00","1":"15:00 - 02:00","2":"15:00 - 03:00","3":"15:00 - 03:00","4":"15:00 - 03:00","5":"15:00 - 03:00","6":"15:00 - 00:00","street":"Oudegracht ","houseNumber":"279","city":"Utrecht","zipcode":"3511PA"},
  {"id":60,"name":"Te Koop","Likes":0,"0":"16:00 - 00:00","1":"12:00 - 00:00","2":"12:00 - 00:00","3":"12:00 - 00:00","4":"12:00 - 00:00","5":"12:00 - 00:00","6":"16:00 - 00:00","street":"","houseNumber":"","city":"Utrecht","zipcode":""},
  {"id":61,"name":"Le Journal","Likes":0,"0":"09:00 - 21:30","1":"09:00 - 21:30","2":"09:00 - 21:30","3":"09:00 - 22:00","4":"09:00 - 21:30","5":"09:00 - 21:30","6":"10:00 - 21:30","street":"Neude","houseNumber":"32","city":"Utrecht","zipcode":"3512AG"},
  {"id":62,"name":"Mammoni","Likes":0,"0":"12:00 - 18:00","1":"10:00 - 18:00","2":"10:00 - 18:00","3":"10:00 - 21:00","4":"10:00 - 18:00","5":"10:00 - 18:00","6":"12:00 - 18:00","street":"Voor Clarenburg","houseNumber":"7","city":"Utrecht","zipcode":"3511JE"},
  {"id":63,"name":"Pickles","Likes":0,"0":"16:00 - 00:00","1":"16:00 - 00:00","2":"16:00 - 00:00","3":"16:00 - 00:00","4":"16:00 - 01:00","5":"12:00 - 01:00","6":"12:00 - 00:00","street":"Drieharingenstraat","houseNumber":"1-3","city":"Utrecht","zipcode":"3511BM"},
  {"id":64,"name":"Sparkling","Likes":0,"0":"Gesloten","1":"17:00 - 22:00","2":"17:00 - 22:00","3":"17:00 - 22:00","4":"17:00 - 22:00","5":"17:00 - 22:00","6":"Gesloten","street":"Voorstraat","houseNumber":"29","city":"Utrecht","zipcode":"3512AJ"},
  {"id":65,"name":"Talud9","Likes":0,"0":"Gesloten","1":"10:00 - 01:00","2":"10:00 - 01:00","3":"10:00 - 01:00","4":"10:00 - 01:00","5":"10:00 - 01:00","6":"10:00 - 00:00","street":"Donkere Gaard","houseNumber":"9","city":"Utrecht","zipcode":"3511KV"},
  {"id":66,"name":"Taverna","Likes":0,"0":"10:00 - 22:00","1":"10:00 - 22:00","2":"10:00 - 22:00","3":"10:00 - 22:00","4":"10:00 - 22:00","5":"10:00 - 22:00","6":"10:00 - 22:00","street":"Oudegracht aan de Werf","houseNumber":"101-103","city":"Utrecht","zipcode":"3511AL"},
  {"id":67,"name":"Boslust","Likes":0,"0":"11:30 - 00:00","1":"11:30 - 00:00","2":"11:30 - 00:00","3":"11:30 - 00:00","4":"11:30 - 00:00","5":"11:00 - 00:00","6":"12:30 - 00:00","street":"Mariaplaats","houseNumber":"31-33","city":"Utrecht","zipcode":"3511LN"},
  {"id":68,"name":"West","Likes":0,"0":"11:00 - 00:00","1":"11:00 - 00:00","2":"11:00 - 00:00","3":"11:00 - 00:00","4":"11:00 - 00:00","5":"11:00 - 00:00","6":"11:00 - 00:00","street":"Vleutenseweg","houseNumber":"433","city":"Utrecht","zipcode":"3552HJ"},
  {"id":69,"name":"Wijncafe Lefebvre","Likes":0,"0":"15:00 - 00:00","1":"15:00 - 00:00","2":"15:00 - 00:00","3":"15:00 - 00:00","4":"15:00 - 00:00","5":"15:00 - 00:00","6":"15:00 - 00:00","street":"Neude","houseNumber":"2","city":"Utrecht","zipcode":"3512AD"},
  {"id":70,"name":"Le Clochard","Likes":0,"0":"17:00 - 01:00","1":"17:00 - 01:00","2":"17:00 - 01:00","3":"17:00 - 01:00","4":"17:00 - 01:00","5":"17:00 - 01:00","6":"17:00 - 01:00","street":"Riddershofstad","houseNumber":"2","city":"Utrecht","zipcode":"3512KL"},
  {"id":71,"name":"Tapperij Thijs","Likes":0,"0":"Gesloten","1":"16:00 - 00:00","2":"16:00 - 00:00","3":"16:00 - 00:00","4":"16:00 - 00:00","5":"16:00 - 00:00","6":"14:00 - 20:00","street":"Willem van Noorstraat","houseNumber":"1","city":"Utrecht","zipcode":"3514GA"},
  {"id":72,"name":"Graaf Floris","Likes":0,"0":"09:30 - 23:00","1":"09:30 - 23:00","2":"09:30 - 23:00","3":"09:30 - 23:00","4":"09:30 - 23:00","5":"09:30 - 23:00","6":"11:00 - 18:00","street":"Vismarkt","houseNumber":"13","city":"Utrecht","zipcode":"3511KS"},
  {"id":73,"name":"Rex","Likes":0,"0":"12:00 - 02:00","1":"12:00 - 02:00","2":"12:00 - 02:00","3":"12:00 - 02:00","4":"12:00 - 03:00","5":"18:00 - 03:00","6":"Gesloten","street":"Nobelstraat","houseNumber":"207","city":"Utrecht","zipcode":"3512EM"},
  {"id":74,"name":"Guusjes","Likes":0,"0":"08:30 - 23:00","1":"08:30 - 23:00","2":"08:30 - 23:00","3":"08:30 - 23:00","4":"08:30 - 00:00","5":"08:30 - 00:00","6":"08:30 - 23:00","street":"s Gravenzandestraat","houseNumber":"27","city":"Utrecht","zipcode":"3514VL"},
  {"id":75,"name":"Voortuin","Likes":0,"0":"11:00 - 02:00","1":"11:00 - 02:00","2":"11:00 - 02:00","3":"11:00 - 03:00","4":"11:00 - 03:00","5":"11:00 - 03:00","6":"13:00 - 00:00","street":"Voorstraat","houseNumber":"4","city":"Utrecht","zipcode":"3512AM"},
  {"id":76,"name":"Marktzicht","Likes":0,"0":"10:30 - 00:30","1":"10:30 - 00:30","2":"10:30 - 00:30","3":"10:30 - 02:30","4":"10:30 - 02:30","5":"10:30 - 02:30","6":"10:30 - 00:30","street":"Breedstraat","houseNumber":"4","city":"Utrecht","zipcode":"3512TW"},
  {"id":77,"name":"De Zaak","Likes":0,"0":"08:00 - 02:00","1":"08:00 - 02:00","2":"08:00 - 02:00","3":"08:00 - 03:00","4":"08:00 - 03:00","5":"10:00 - 03:00","6":"11:00 - 02:00","street":"Korte Minrebroederstraat","houseNumber":"9","city":"Utrecht","zipcode":"3512GG"},
  {"id":78,"name":"Ubica","Likes":0,"0":"11:00 - 01:00","1":"11:00 - 01:00","2":"11:00 - 01:00","3":"11:00 - 03:00","4":"11:00 - 03:00","5":"08:00 - 03:00","6":"14:00 - 21:00","street":"Ganzenmarkt","houseNumber":"24","city":"Utrecht","zipcode":"3512GE"},
  {"id":79,"name":"Ouwe Dikke Dries","Likes":0,"0":"Gesloten","1":"15:00 - 02:00","2":"15:00 - 02:00","3":"15:00 - 02:00","4":"15:00 - 02:00","5":"20:00 - 03:00","6":"Gesloten","street":"Waterstraat","houseNumber":"32","city":"Utrecht","zipcode":"3511BW"},
  {"id":80,"name":"Ome Willem (Karaoke)","Likes":0,"0":"Gesloten","1":"Gesloten","2":"21:00 - 00:00","3":"21:00 - 00:00","4":"21:00 - 00:00","5":"21:00 - 00:00","6":"Gesloten","street":"Willemstraat","houseNumber":"12","city":"Utrecht","zipcode":"3511RK"},
  {"id":81,"name":"Orloff","Likes":0,"0":"08:00 - 01:00","1":"08:00 - 01:00","2":"08:00 - 01:00","3":"08:00 - 01:00","4":"08:00 - 03:00","5":"09:00 - 03:00","6":"10:00 - 03:00","street":"Donkere Gaard","houseNumber":"8","city":"Utrecht","zipcode":"3511KW"},
  {"id":82,"name":"Orloff aan de kade","Likes":0,"0":"11:00 - 01:00","1":"11:00 - 01:00","2":"11:00 - 01:00","3":"11:00 - 01:00","4":"11:00 - 01:00","5":"09:00 - 00:00","6":"10:00 - 00:00","street":"Oosterkade","houseNumber":"18","city":"Utrecht","zipcode":"3582AT"},
  {"id":83,"name":"Le Jardin","Likes":0,"0":"Gesloten","1":"17:00 - 01:00","2":"17:00 - 01:00","3":"17:00 - 01:00","4":"17:00 - 01:00","5":"17:00 - 01:00","6":"Gesloten","street":"Mariaplaats","houseNumber":"42","city":"Utrecht","zipcode":"3511LL"},
  {"id":84,"name":"Chupitos","Likes":0,"0":"Gesloten","1":"22:00 - 04:00","2":"22:00 - 04:00","3":"22:00 - 05:00","4":"22:00 - 05:00","5":"22:00 - 05:00","6":"Gesloten","street":"Loeff Berchmakerstraat ","houseNumber":"10","city":"Utrecht","zipcode":"3512TD"},
  {"id":85,"name":"Mick O'Connels","Likes":0,"0":"16:00 - 01:00","1":"16:00 - 01:00","2":"16:00 - 01:00","3":"16:00 - 01:00","4":"12:00 - 03:00","5":"12:00 - 03:00","6":"16:00 - 01:00","street":"Jansdam","houseNumber":"3","city":"Utrecht","zipcode":"3512HA"},
  {"id":86,"name":"The Village","Likes":0,"0":"08:00 - 18:00","1":"08:00 - 18:00","2":"08:00 - 18:00","3":"08:00 - 18:00","4":"08:00 - 18:00","5":"09:00 - 18:00","6":"10:00 - 18:00","street":"Voorstraat ","houseNumber":"46","city":"Utrecht","zipcode":"3512AP"},
  {"id":87,"name":"Aperitivo","Likes":0,"0":"10:00 - 01:00","1":"10:00 - 01:00","2":"10:00 - 01:00","3":"10:00 - 02:00","4":"10:00 - 03:00","5":"10:00 - 03:00","6":"10:00 - 01:00","street":"Vinkenburgstraat ","houseNumber":"20","city":"Utrecht","zipcode":"3512AB"},
  {"id":88,"name":"Behind Bars Cocktailbar","Likes":0,"0":"Gesloten","1":"Gesloten","2":"17:00 - 01:00","3":"17:00 - 02:00","4":"17:00 - 03:00","5":"17:00 - 03:00","6":"17:00 - 01:00","street":"Hamburgerstraat","houseNumber":"14","city":"Utrecht","zipcode":"3512NR"},
  {"id":89,"name":"Lebowski","Likes":0,"0":"11:00 - 01:00","1":"11:00 - 01:00","2":"11:00 - 01:00","3":"11:00 - 01:00","4":"11:00 - 02:00","5":"10:00 - 02:00","6":"11:00 - 01:00","street":"Domplein ","houseNumber":"17","city":"Utrecht","zipcode":"3512JD"},
  {"id":90,"name":"Fezzlounge","Likes":0,"0":"17:00 - 02:00","1":"17:00 - 02:00","2":"17:00 - 02:00","3":"17:00 - 03:00","4":"17:00 - 03:00","5":"17:00 - 03:00","6":"18:00 - 02:00","street":"Nobelstraat","houseNumber":"24","city":"Utrecht","zipcode":"3512EP"},
  {"id":91,"name":"Vinnies","Likes":0,"0":"16:00 - 01:00","1":"16:00 - 01:00","2":"16:00 - 01:00","3":"16:00 - 01:00","4":"16:00 - 01:00","5":"16:00 - 01:00","6":"16:00 - 01:00","street":"Lucasbolwerk ","houseNumber":"1","city":"Utrecht","zipcode":"3512EG"},
  {"id":92,"name":"Het Hart","Likes":0,"0":"16:00 - 02:00","1":"16:00 - 02:00","2":"16:00 - 02:00","3":"16:00 - 03:00","4":"16:00 - 03:00","5":"12:00 - 03:00","6":"12:00 - 02:00","street":"Voorstraat ","houseNumber":"10","city":"Utrecht","zipcode":"3512AM"},
  {"id":93,"name":"De Kneus","Likes":0,"0":"20:00 - 05:00","1":"20:00 - 05:00","2":"20:00 - 05:00","3":"20:00 - 05:00","4":"20:00 - 05:00","5":"20:00 - 05:00","6":"20:00 - 05:00","street":"Nobelstraat","houseNumber":"303","city":"Utrecht","zipcode":"3512EM"},
  {"id":94,"name":"Madeleine Bar","Likes":0,"0":"17:00 - 01:00","1":"12:00 - 01:00","2":"12:00 - 01:00","3":"12:00 - 01:00","4":"12:00 - 01:00","5":"12:00 - 01:00","6":"13:00 - 01:00","street":"Wed","houseNumber":"3-A","city":"Utrecht","zipcode":"3512JH"},
  {"id":95,"name":"De Potdeksel","Likes":0,"0":"Onbekend","1":"Onbekend","2":"Onbekend","3":"Onbekend","4":"Onbekend","5":"Onbekend","6":"Onbekend","street":"Lucasbolwerk ","houseNumber":"22-23","city":"Utrecht","zipcode":"3512EJ"},
  {"id":96,"name":"Brass","Likes":0,"0":"Gesloten","1":"16:00 - 01:00","2":"16:00 - 01:00","3":"16:00 - 01:00","4":"16:00 - 01:00","5":"16:00 - 01:00","6":"Gesloten","street":"Janskerkhof ","houseNumber":"19","city":"Utrecht","zipcode":"3512BM"},
  {"id":97,"name":"Jij & Wij","Likes":0,"0":"21:00 - 04:00","1":"21:00 - 04:00","2":"21:00 - 04:00","3":"21:00 - 04:00","4":"21:00 - 04:00","5":"21:00 - 04:00","6":"21:00 - 04:00","street":"Voorstraat","houseNumber":"96","city":"Utrecht","zipcode":"3512AV"},
  {"id":98,"name":"Pandje","Likes":0,"0":"21:00 - 03:00","1":"21:00 - 03:00","2":"21:00 - 03:00","3":"21:00 - 03:00","4":"21:00 - 03:00","5":"21:00 - 03:00","6":"Gesloten","street":"Nobelstraat","houseNumber":"193","city":"Utrecht","zipcode":"3512EM"},
  {"id":99,"name":"Aus der Reihe Derrick","Likes":0,"0":"Gesloten","1":"Gesloten","2":"Gesloten","3":"Gesloten","4":"23:00 - 05:30","5":"23:00 - 05:30","6":"Gesloten","street":"Voorstraat","houseNumber":"102","city":"Utrecht","zipcode":"3512AV"},
  {"id":100,"name":"De Maartenshof","Likes":0,"0":"17:00 - 02:00","1":"17:00 - 02:00","2":"17:00 - 02:00","3":"17:00 - 02:00","4":"17:00 - 02:00","5":"17:00 - 02:00","6":"12:00 - 00:00","street":"Loeff Berchmakerstraat ","houseNumber":"34","city":"Utrecht","zipcode":"3512TD"},
  {"id":101,"name":"La Noche","Likes":0,"0":"16:00 - 23:00","1":"16:00 - 23:00","2":"16:00 - 23:00","3":"16:00 - 23:00","4":"16:00 - 23:00","5":"16:00 - 23:00","6":"16:00 - 23:00","street":"Schoutenstraat","houseNumber":"15","city":"Utrecht","zipcode":"3512GA"},
  {"id":102,"name":"Elize","Likes":0,"0":"09:00 - 21:00","1":"09:00 - 21:00","2":"09:00 - 21:00","3":"09:00 - 21:00","4":"09:00 - 21:00","5":"09:00 - 21:00","6":"09:00 - 21:00","street":"Mariaplaats","houseNumber":"4","city":"Utrecht","zipcode":"3511LL"},
  {"id":103,"name":"Body Talk","Likes":0,"0":"16:00 - 01:00","1":"16:00 - 01:00","2":"16:00 - 01:00","3":"16:00 - 03:00","4":"16:00 - 04:00","5":"15:00 - 04:00","6":"15:00 - 01:00","street":"Oudegracht","houseNumber":"64","city":"Utrecht","zipcode":"3511AS"},
  {"id":104,"name":"Kalff","Likes":0,"0":"16:00 - 01:00","1":"16:00 - 01:00","2":"16:00 - 01:00","3":"16:00 - 01:00","4":"16:00 - 02:00","5":"15:00 - 02:00","6":"15:00 - 01:00","street":"Oudegracht","houseNumber":"47","city":"Utrecht","zipcode":"3511AC"},
  {"id":105,"name":"Weerdzicht","Likes":0,"0":"11:00 - 01:00","1":"11:00 - 01:00","2":"11:00 - 01:00","3":"17:00 - 01:00","4":"11:00 - 02:00","5":"11:00 - 02:00","6":"12:00 - 20:00","street":"Oudegracht","houseNumber":"1","city":"Utrecht","zipcode":"3511AB"}]
